[{"OBJECT_NAME":"STARLINK-30076","OBJECT_ID":"2023-079S","EPOCH":"2026-03-09T22:00:01.999584","MEAN_MOTION":15.1691444,"ECCENTRICITY":8.779e-5,"INCLINATION":43.0004,"RA_OF_ASC_NODE":105.312,"ARG_OF_PERICENTER":257.756,"MEAN_ANOMALY":261.8384,"EPHEMERIS_TYPE":0,"CLASSIFICATION_TYPE":"U","NORAD_CAT_ID":56839,"ELEMENT_SET_NO":999,"REV_AT_EPOCH":572,"BSTAR":0.061744286,"MEAN_MOTION_DOT":0.01347453,"MEAN_MOTION_DDOT":0},{"OBJECT_NAME":"MULE 4T","OBJECT_ID":"2025-313AQ","EPOCH":"2026-03-09T21:24:34.594848","MEAN_MOTION":15.22526761,"ECCENTRICITY":0.00094122,"INCLINATION":97.4001,"RA_OF_ASC_NODE":145.2527,"ARG_OF_PERICENTER":352.2509,"MEAN_ANOMALY":7.858,"EPHEMERIS_TYPE":0,"CLASSIFICATION_TYPE":"U","NORAD_CAT_ID":67286,"ELEMENT_SET_NO":999,"REV_AT_EPOCH":1085,"BSTAR":0.00051041148,"MEAN_MOTION_DOT":0.00011788,"MEAN_MOTION_DDOT":0}]
